STARLINK-2022           
1 47643U 21012Z   23296.86853068  .00003216  00000+0  23464-3 0  9999
2 47643  53.0564 347.4213 0001839  90.3157 269.8043 15.06406169149463
